     2.100          NAVIGATION                              RINEX VERSION / TYPE
fic2rin                                 10/25/2010 00:27:14 PGM / RUN BY / DATE
                                                            END OF HEADER
21 10 10 24 18  0  0.0 -.974577851593D-04 -.272848410532D-11  .000000000000D+00
     .530000000000D+02  .169062500000D+02  .517092967569D-08  .129108895892D+00
     .959262251854D-06  .169184424449D-01  .106077641249D-04  .515362663269D+04
     .648000000000D+05  .204890966415D-07  .290648076780D+01  .188127160072D-06
     .932616876219D+00  .159156250000D+03 -.243811186956D+01 -.846213819631D-08
    -.642526763819D-09  .100000000000D+01  .160700000000D+04  .000000000000D+00
     .240000000000D+01  .000000000000D+00 -.121071934700D-07  .530000000000D+02
     .576060000000D+05  .400000000000D+01
22 10 10 24 18  0  0.0  .160235911608D-03 -.795807864051D-12  .000000000000D+00
     .330000000000D+02  .146218750000D+03  .497592155282D-08 -.195387460967D+01
     .746548175812D-05  .555647048168D-02  .677444040775D-05  .515372641182D+04
     .648000000000D+05  .143423676491D-06 -.231668452097D+01 -.502914190292D-07
     .933299563033D+00  .236500000000D+03 -.192948123043D+01 -.827820196320D-08
     .147506144223D-09  .100000000000D+01  .160700000000D+04  .000000000000D+00
     .240000000000D+01  .000000000000D+00 -.176951289177D-07  .330000000000D+02
     .576060000000D+05  .400000000000D+01
23 10 10 24 18  0  0.0  .347230583429D-03 -.204636307899D-11  .000000000000D+00
     .750000000000D+02 -.195937500000D+02  .459733435457D-08  .258374771818D+01
    -.106543302536D-05  .698660244234D-02  .106357038021D-05  .515362810898D+04
     .648000000000D+05 -.707805156708D-07 -.128364879456D+01  .651925802231D-07
     .966312127899D+00  .364531250000D+03  .312253122308D+01 -.832570394184D-08
    -.164292557730D-09  .100000000000D+01  .160700000000D+04  .000000000000D+00
     .240000000000D+01  .000000000000D+00 -.200234353542D-07  .750000000000D+02
     .576060000000D+05  .400000000000D+01
24 10 10 24 18  0  0.0  .332878436893D-03  .329691829393D-11  .000000000000D+00
     .450000000000D+02  .151562500000D+02  .462912139292D-08  .250940173863D+01
     .871717929840D-06  .575407745782D-02  .114962458611D-04  .515476050568D+04
     .648000000000D+05 -.484287738800D-07  .294759847229D+01  .139698386192D-06
     .949256276151D+00  .149437500000D+03 -.342160039950D+00 -.789532887214D-08
    -.562523431359D-09  .100000000000D+01  .160700000000D+04  .000000000000D+00
     .340000000000D+01  .000000000000D+00 -.139698386192D-08  .450000000000D+02
     .576060000000D+05  .400000000000D+01
25 10 10 24 18  0  0.0 -.475160777569D-04 -.216004991671D-11  .000000000000D+00
     .550000000000D+02  .937500000000D+01  .454626079858D-08 -.181050060063D+01
     .579282641411D-06  .699799973518D-03  .989623367786D-05  .515375341415D+04
     .648000000000D+05  .931322574615D-08  .785537063080D+00  .298023223877D-07
     .961204222151D+00  .191250000000D+03  .193447416399D+01 -.790140055362D-08
     .713958310658D-09  .100000000000D+01  .160700000000D+04  .100000000000D+01
     .240000000000D+01  .000000000000D+00  .465661287308D-08  .550000000000D+02
     .576060000000D+05  .400000000000D+01
26 10 10 24 18  0  0.0 -.363504514098D-04 -.773070496507D-11  .000000000000D+00
     .910000000000D+02 -.440312500000D+02  .391802034413D-08  .231421980390D+01
    -.262819230556D-05  .198553925147D-01  .101514160633D-05  .515364048767D+04
     .648000000000D+05  .143423676491D-06 -.122321657913D+01 -.353902578354D-06
     .989097090150D+00  .374281250000D+03  .111383415045D+01 -.787389940809D-08
    -.148934775160D-09  .100000000000D+01  .160700000000D+04  .000000000000D+00
     .240000000000D+01  .000000000000D+00 -.605359673500D-08  .910000000000D+02
     .576060000000D+05  .400000000000D+01
27 10 10 24 18  0  0.0  .201217830181D-03  .352429196937D-11  .000000000000D+00
     .137000000000D+03 -.130843750000D+03  .363229415677D-08 -.283023271240D+01
    -.672414898872D-05  .216743500205D-01  .884942710400D-05  .515357217789D+04
     .648000000000D+05  .223517417908D-06 -.296227289821D+00  .221654772758D-06
     .979936737476D+00  .208500000000D+03 -.135819628084D+01 -.735244911616D-08
    -.571452374714D-10  .100000000000D+01  .160700000000D+04  .000000000000D+00
     .340000000000D+01  .000000000000D+00 -.419095158577D-08  .137000000000D+03
     .576060000000D+05  .400000000000D+01
28 10 10 24 18  0  0.0  .168243423104D-05  .159161572810D-11  .000000000000D+00
     .650000000000D+02  .202187500000D+02  .423874798944D-08 -.180258929326D+01
     .113993883133D-05  .162997891894D-01  .883452594280D-05  .515368052673D+04
     .648000000000D+05  .312924385071D-06  .837978580051D+00  .577419996262D-07
     .971831343305D+00  .208531250000D+03 -.194264772868D+01 -.760138805690D-08
     .702886420898D-09  .100000000000D+01  .160700000000D+04  .000000000000D+00
     .240000000000D+01  .000000000000D+00 -.107102096081D-07  .650000000000D+02
     .576060000000D+05  .400000000000D+01
29 10 10 24 18  0  0.0  .158593524247D-03  .284217094304D-11  .000000000000D+00
     .510000000000D+02 -.150000000000D+02  .516414367874D-08  .251490584941D+00
    -.748783349991D-06  .255881098565D-02  .496953725815D-05  .515363443184D+04
     .648000000000D+05 -.130385160446D-07  .188213530290D+01  .186264514923D-07
     .960560693266D+00  .285437500000D+03 -.124943834117D+01 -.831748931396D-08
    -.971469037013D-10  .100000000000D+01  .160700000000D+04  .000000000000D+00
     .240000000000D+01  .000000000000D+00 -.884756445885D-08  .510000000000D+02
     .576060000000D+05  .400000000000D+01
30 10 10 24 18  0  0.0  .290199182928D-03  .341060513165D-11  .000000000000D+00
     .260000000000D+02  .109062500000D+02  .453447459335D-08 -.173457101079D+01
     .851228833199D-06  .131212387932D-01  .989623367786D-05  .515534556198D+04
     .648000000000D+05  .163912773132D-06  .756972259253D+00  .307336449623D-06
     .957871175431D+00  .185312500000D+03  .155285704369D+01 -.782211153663D-08
     .697886212619D-09  .100000000000D+01  .160700000000D+04  .000000000000D+00
     .340000000000D+01  .000000000000D+00 -.791624188423D-08  .260000000000D+02
     .576060000000D+05  .400000000000D+01
31 10 10 24 18  0  0.0  .214297324419D-05  .352429196937D-11  .000000000000D+00
     .350000000000D+02 -.127500000000D+03  .374979905132D-08  .942201944733D+00
    -.659935176373D-05  .749792123679D-02  .911951065063D-05  .515379605675D+04
     .648000000000D+05  .353902578354D-07 -.240535692603D+00 -.173225998878D-06
     .978514965430D+00  .211843750000D+03 -.105130805305D+01 -.781746848608D-08
    -.685742849656D-10  .100000000000D+01  .160700000000D+04  .000000000000D+00
     .240000000000D+01  .000000000000D+00 -.130385160446D-07  .350000000000D+02
     .576060000000D+05  .400000000000D+01
32 10 10 24 18  0  0.0 -.115922186524D-03 -.875388650456D-11  .000000000000D+00
     .760000000000D+02  .128562500000D+03  .450911639423D-08  .176464876304D+01
     .659376382828D-05  .126450994285D-01  .569224357605D-05  .515360174942D+04
     .648000000000D+05  .188127160072D-06 -.225483505975D+01  .689178705215D-07
     .957420819026D+00  .260687500000D+03 -.909176724163D+00 -.802854870699D-08
     .632169189527D-10  .100000000000D+01  .160700000000D+04  .000000000000D+00
     .340000000000D+01  .000000000000D+00 -.325962901115D-08  .760000000000D+02
     .576060000000D+05  .400000000000D+01
27 10 10 24 17 59 44.0  .201227143407D-03  .363797880709D-11  .000000000000D+00
     .000000000000D+00 -.130843750000D+03  .363229415677D-08 -.283256625692D+01
    -.672414898872D-05  .216743432684D-01  .884942710400D-05  .515357216263D+04
     .647840000000D+05  .223517417908D-06 -.296227184491D+00  .221654772758D-06
     .979936731624D+00  .208500000000D+03 -.135819656465D+01 -.735244911616D-08
    -.571452374714D-10  .100000000000D+01  .160700000000D+04  .000000000000D+00
     .240000000000D+01  .000000000000D+00 -.419095158577D-08  .000000000000D+00
     .597360000000D+05  .400000000000D+01
32 10 10 24 17 59 44.0 -.115920323879D-03 -.875388650456D-11  .000000000000D+00
     .600000000000D+01  .128562500000D+03  .450911639423D-08  .176231524632D+01
     .659376382828D-05  .126450969838D-01  .569224357605D-05  .515360175323D+04
     .647840000000D+05  .188127160072D-06 -.225483493979D+01  .689178705215D-07
     .957420813174D+00  .260687500000D+03 -.909177048931D+00 -.802854870699D-08
     .632169189527D-10  .100000000000D+01  .160700000000D+04  .000000000000D+00
     .240000000000D+01  .000000000000D+00 -.325962901115D-08  .600000000000D+01
     .605460000000D+05  .400000000000D+01
20 10 10 24 17 59 44.0  .500106252730D-04 -.341060513165D-12  .000000000000D+00
     .120000000000D+02  .120125000000D+03  .506806824824D-08 -.684761392546D+00
     .622496008873D-05  .430047395639D-02  .712461769581D-05  .515380997658D+04
     .647840000000D+05 -.502914190292D-07 -.237523230335D+01  .409781932831D-07
     .935652912534D+00  .226750000000D+03  .126819743187D+01 -.843249410437D-08
     .105718689322D-09  .100000000000D+01  .160700000000D+04  .000000000000D+00
     .240000000000D+01  .000000000000D+00 -.791624188423D-08  .120000000000D+02
     .644160000000D+05  .400000000000D+01
20 10 10 24 19 59 44.0  .500087626278D-04 -.341060513165D-12  .000000000000D+00
     .130000000000D+02  .135875000000D+03  .500020827875D-08  .365434547256D+00
     .706315040588D-05  .430327223148D-02  .776350498199D-05  .515381534767D+04
     .719840000000D+05 -.242143869400D-07 -.237529320902D+01  .260770320892D-07
     .935653705435D+00  .214218750000D+03  .126810130937D+01 -.844892336014D-08
     .122147945095D-09  .100000000000D+01  .160700000000D+04  .000000000000D+00
     .240000000000D+01  .000000000000D+00 -.791624188423D-08  .130000000000D+02
     .648060000000D+05  .400000000000D+01
